satname,norad_id,inclination_deg,eccentricity,mean_motion_rev_per_day,perigee_km,apogee_km,l1,l2
STARLINK-1360,45588,53.04,0.0003981,15.86302329,309.9965976559324,315.32381038977474,1 45588U 20025BK  25339.33336806  .00230649  00000+0  88245-3 0  9996,2 45588  53.0400  25.8485 0003981  11.5681 163.2231 15.86302329  5966
STARLINK-1364,45589,53.0534,0.0001275,15.06398604,546.3328539938702,548.0988189671725,1 45589U 20025BL  25338.68050870  .00001210  00000+0  10010-3 0  9993,2 45589  53.0534 143.1340 0001275  91.2925 268.8210 15.06398604311185
STARLINK-1365,45590,53.0535,0.0001638,15.06398232,546.0826036275703,548.3513495903071,1 45590U 20025BM  25338.69617761  .00000587  00000+0  58293-4 0  9996,2 45590  53.0535 173.0588 0001638  91.6204 268.4972 15.06398232310784
STARLINK-1443,45660,53.0553,0.0001358,15.06393998,546.2894884326552,548.1704180971619,1 45660U 20035D   25338.68143004  .00000079  00000+0  24225-4 0  9992,2 45660  53.0553 133.1296 0001358  90.9625 269.1520 15.06393998304417
STARLINK-1446,45663,53.0263,9.1e-05,15.36781701,455.0115937861183,456.2553400110937,1 45663U 20035G   25338.63248088  .00044786  00000+0  12314-2 0  9995,2 45663  53.0263  89.2285 0000910 339.8354  20.2612 15.36781701305026
STARLINK-1448,45665,53.0547,0.00013,15.06393477,546.3312521544258,548.1318479774427,1 45665U 20035J   25338.68511891  .00000314  00000+0  40004-4 0  9995,2 45665  53.0547 133.1080 0001300  93.2046 266.9091 15.06393477304405
STARLINK-1451,45668,53.0532,0.0001208,15.06396466,546.385805746253,548.0589725746731,1 45668U 20035M   25338.75519348  .00001043  00000+0  88875-4 0  9999,2 45668  53.0532 133.1118 0001208  85.1923 274.9204 15.06396466304423
STARLINK-1452,45669,53.0384,0.0008169,15.30630856,468.3314602009441,479.5263654893506,1 45669U 20035N   25339.00003471  .00003165  00000+0  11746-3 0  9993,2 45669  53.0384 107.6008 0008169 129.9096 112.1228 15.30630856  5860
STARLINK-1453,45670,53.057,0.0001392,15.12625606,527.2350831672638,529.1578063982915,1 45670U 20035P   25338.63617683  .00036525  00000+0  20730-2 0  9997,2 45670  53.0570 102.6740 0001392  88.3879 271.7273 15.12625606304721
STARLINK-1454,45671,53.0535,0.0001207,15.0640437,546.3622765956898,548.034052504413,1 45671U 20035Q   25338.71090624 -.00002165  00000+0 -12651-3 0  9996,2 45671  53.0535 132.9974 0001207  77.8253 282.2871 15.06404370304404
STARLINK-1456,45673,53.0531,0.0001214,15.06403512,546.360058176796,548.0415301932253,1 45673U 20035S   25338.65930683 -.00000810  00000+0 -35506-4 0  9999,2 45673  53.0531 133.2290 0001214 110.1636 249.9484 15.06403512304419
STARLINK-1457,45674,53.0522,0.0002658,15.46169934,426.1335644630426,429.75167638926087,1 45674U 20035T   25339.27888796  .00149467  00000+0  29485-2 0  9993,2 45674  53.0522 123.5628 0002658 285.4164  74.6548 15.46169934304574
STARLINK-1458,45675,53.0549,0.0001613,15.06386891,546.1346702235724,548.3688006296206,1 45675U 20035U   25338.65563338  .00000250  00000+0  35665-4 0  9992,2 45675  53.0549 133.2392 0001613 132.2105 227.9021 15.06386891304370
STARLINK-1460,45676,53.0544,0.0001282,15.06399473,546.3253432256533,548.1010030100406,1 45676U 20035V   25338.75882776  .00001898  00000+0  14629-3 0  9999,2 45676  53.0544 132.7781 0001282  87.2118 272.9018 15.06399473304384
STARLINK-1392,45677,53.0542,0.0001324,15.06402719,546.2863095616822,548.1201396531587,1 45677U 20035W   25338.70354264  .00001163  00000+0  96918-4 0  9998,2 45677  53.0542 133.0304 0001324  88.4571 271.6570 15.06402719304412
STARLINK-1394,45679,53.0532,0.0001215,15.06397291,546.3784297869834,548.0612915041211,1 45679U 20035Y   25338.70079191  .00002826  00000+0  20852-3 0  9993,2 45679  53.0532 123.0389 0001215  74.4056 285.7068 15.06397291304558
STARLINK-1402,45685,53.0516,0.0003256,15.30682249,471.54455616378345,476.00652160910704,1 45685U 20035AE  25339.25527197  .00073595  00000+0  24355-2 0  9997,2 45685  53.0516 107.8953 0003256 240.6251 119.4423 15.30682249304820
STARLINK-1404,45686,53.0548,0.0001274,15.06396434,546.3401964375653,548.1047780349136,1 45686U 20035AF  25338.66023441  .00000644  00000+0  62120-4 0  9994,2 45686  53.0548 123.2253 0001274  93.4615 266.6520 15.06396434304551
STARLINK-1413,45689,53.0546,0.0001333,15.06412773,546.249267065079,548.095554554,1 45689U 20035AJ  25338.67865472  .00003520  00000+0  25501-3 0  9993,2 45689  53.0546 123.1374 0001333  89.4164 270.6978 15.06412773304462
STARLINK-1417,45693,53.0524,2.29e-05,15.07205598,544.5850819426369,544.9021498748452,1 45693U 20035AN  25338.67088370  .00054774  00000+0  35887-2 0  9996,2 45693  53.0524 123.1327 0000229 233.6615 126.4353 15.07205598304548
STARLINK-1420,45695,53.0533,0.0001386,15.06384277,546.2998870987476,548.2196070770406,1 45695U 20035AQ  25339.27299002 -.00002565  00000+0 -15340-3 0  9997,2 45695  53.0533 100.4600 0001386  85.7038 274.4110 15.06384277304920
STARLINK-1422,45696,53.055,0.0001374,15.06397632,546.2672716376774,548.1703594157843,1 45696U 20035AR  25338.61969242  .00000540  00000+0  55150-4 0  9998,2 45696  53.0550 123.4072 0001374  84.9291 275.1855 15.06397632304537
STARLINK-1351,45697,53.0551,0.0001249,15.06400938,546.3437074290468,548.0736587806869,1 45697U 20035AS  25338.66207682  .00001757  00000+0  13683-3 0  9992,2 45697  53.0551 103.2160 0001249  93.6523 266.4609 15.06400938304836
STARLINK-1398,45699,53.0488,0.0001742,15.56922016,395.3911603469551,397.7514687237399,1 45699U 20035AU  25338.58908889  .00114058  00000+0  15409-2 0  9998,2 45699  53.0488  51.5485 0001742 273.3274  86.7538 15.56922016305555
STARLINK-1400,45700,53.0555,0.0001195,15.06400388,546.3827897638457,548.0379477849838,1 45700U 20035AV  25338.63627348  .00001829  00000+0  14165-3 0  9995,2 45700  53.0555 103.3290 0001195  89.7015 270.4111 15.06400388304823
STARLINK-1403,45701,53.055,0.0001237,15.06401062,546.3516378491568,548.0649682771345,1 45701U 20035AW  25338.66576083  .00001624  00000+0  12787-3 0  9999,2 45701  53.0550 103.1982 0001237  92.0369 268.0762 15.06401062304826
STARLINK-1407,45703,53.0411,0.0009105,15.44808173,425.7411994151298,438.1423528664818,1 45703U 20035AY  25339.19684305  .00036508  00000+0  77138-3 0  9997,2 45703  53.0411  50.3101 0009105 165.1262 195.0013 15.44808173305629
STARLINK-1411,45706,53.0518,0.0002206,15.45255119,429.126544907479,432.13057227192894,1 45706U 20035BB  25338.56382595  .00091435  00000+0  18786-2 0  9999,2 45706  53.0518  80.5585 0002206 343.6741  16.4193 15.45255119305139
STARLINK-1423,45710,53.0536,0.0001201,15.06403235,546.3699099759051,548.0333763179879,1 45710U 20035BF  25338.62522584  .00001746  00000+0  13605-3 0  9997,2 45710  53.0536 103.3835 0001201  74.0187 286.0934 15.06403235304823
STARLINK-1433,45711,53.0536,0.0001277,15.06426321,546.2465323293573,548.0152457482172,1 45711U 20035BG  25338.87215792  .00007418  00000+0  51599-3 0  9991,2 45711  53.0536 102.2696 0001277  88.1361 271.9774 15.06426321304859
STARLINK-1434,45712,53.05,0.0003761,15.17961688,509.4103699473735,514.5931323159739,1 45712U 20035BH  25339.32880449  .00063122  00000+0  30584-2 0  9994,2 45712  53.0500  93.8809 0003761 168.9884 191.1193 15.17961688305029
STARLINK-1465,45731,53.0544,0.0001428,15.06411916,546.1861027963005,548.1639719141704,1 45731U 20038B   25339.30343744  .00006324  00000+0  44292-3 0  9991,2 45731  53.0544 300.3316 0001428  94.5404 265.5748 15.06411916301960
STARLINK-1471,45735,53.05,0.000167,15.42751827,436.8536106459196,439.13019769991297,1 45735U 20038F   25339.16842513  .00035651  00000+0  80867-3 0  9990,2 45735  53.0500 232.5420 0001670  96.8731 263.2464 15.42751827302919
STARLINK-1474,45738,53.0327,0.000302,15.74004906,345.43319709460957,349.4954602971429,1 45738U 20038J   25339.27723995  .00131170  00000+0  89284-3 0  9992,2 45738  53.0327 182.1121 0003020 119.1935 240.9385 15.74004906303620
STARLINK-1475,45739,53.0376,0.0002888,16.04959463,258.789688582131,262.62428486886347,1 45739U 20038K   25338.93343701  .00821113  35244-3  11739-2 0  9992,2 45739  53.0376 145.6244 0002888 294.0980  65.9749 16.04959463304114
STARLINK-1480,45741,53.0546,0.0001585,15.06385832,546.1573065290349,548.3526557870618,1 45741U 20038M   25339.28500951  .00000785  00000+0  71592-4 0  9993,2 45741  53.0546 300.4147 0001585  79.9829 280.1339 15.06385832301975
STARLINK-1500,45744,53.0416,0.0001896,15.29483691,476.0548724281807,478.65447487082747,1 45744U 20038Q   25339.21897269  .00039110  00000+0  13551-2 0  9993,2 45744  53.0416 274.0662 0001896  29.4534 330.6571 15.29483691302337
STARLINK-1504,45746,53.0281,0.0003613,15.43695099,432.7533020489891,437.67663017970426,1 45746U 20038S   25339.11669321  .00046090  00000+0  10087-2 0  9996,2 45746  53.0281 235.7734 0003613  68.9094 291.2297 15.43695099302858
STARLINK-1506,45747,53.0671,0.0002605,15.22789958,495.6387044284493,499.22087472581916,1 45747U 20038T   25339.06100119  .00016383  00000+0  70455-3 0  9994,2 45747  53.0671 278.9795 0002605  17.8362 342.2726 15.22789958302252
STARLINK-1464,45751,53.0543,0.000148,15.0636807,546.2844544478776,548.3343865883508,1 45751U 20038X   25339.22050592  .00019561  00000+0  13296-2 0  9996,2 45751  53.0543 280.7071 0001480  71.6297 288.4853 15.06368070302249
STARLINK-1477,45754,53.0552,0.0006011,15.08709986,535.9822414909049,544.2993950840491,1 45754U 20038AA  25339.13898130  .00019107  00000+0  12192-2 0  9997,2 45754  53.0552 280.7567 0006011  76.6096 283.5564 15.08709986302230
STARLINK-1478,45755,53.0537,0.000124,15.06377859,546.4206661097569,548.1381693813573,1 45755U 20038AB  25339.25367855  .00016303  00000+0  11115-2 0  9995,2 45755  53.0537 280.5567 0001240  65.4683 294.6435 15.06377859302237
STARLINK-1484,45756,53.0131,0.0003032,15.68129869,362.20798459231264,366.2965694498989,1 45756U 20038AC  25338.82355214  .00125732  00000+0  10956-2 0  9993,2 45756  53.0131 173.7762 0003032 148.1292 211.9908 15.68129869303696
